[{"OBJECT_NAME":"SDA_1677","OBJECT_ID":"2025-230P","EPOCH":"2026-03-09T17:45:54.981216","MEAN_MOTION":13.84685183,"ECCENTRICITY":0.00034516,"INCLINATION":81.2982,"RA_OF_ASC_NODE":303.9556,"ARG_OF_PERICENTER":66.1356,"MEAN_ANOMALY":294.0162,"EPHEMERIS_TYPE":0,"CLASSIFICATION_TYPE":"U","NORAD_CAT_ID":65987,"ELEMENT_SET_NO":999,"REV_AT_EPOCH":2004,"BSTAR":0.00016358526,"MEAN_MOTION_DOT":1.96e-6,"MEAN_MOTION_DDOT":0},{"OBJECT_NAME":"SL-8 R\/B","OBJECT_ID":"1981-087B","EPOCH":"2026-03-09T23:54:36.623808","MEAN_MOTION":13.89768668,"ECCENTRICITY":0.00433199,"INCLINATION":82.9253,"RA_OF_ASC_NODE":79.8499,"ARG_OF_PERICENTER":35.853,"MEAN_ANOMALY":24.3047,"EPHEMERIS_TYPE":0,"CLASSIFICATION_TYPE":"U","NORAD_CAT_ID":12804,"ELEMENT_SET_NO":999,"REV_AT_EPOCH":25578,"BSTAR":0.00014626854,"MEAN_MOTION_DOT":1.97e-6,"MEAN_MOTION_DDOT":0}]
